NORAD_CAT_ID,OBJECT_NAME,OBJECT_TYPE,EPOCH,MEAN_MOTION,ECCENTRICITY,INCLINATION,RA_OF_ASC_NODE,ARG_OF_PERICENTER,MEAN_ANOMALY,BSTAR,MEAN_MOTION_DOT,MEAN_MOTION_DDOT,TLE_LINE0,TLE_LINE1,TLE_LINE2,SEMIMAJOR_AXIS,PERIOD,APOGEE,PERIGEE,DECAYED
53151.0,STARLINK-4040,PAYLOAD,2023-02-23 08:27:05,15.08840314,0.0001207,53.2156,108.6157,107.7792,252.3332,0.0017503,0.00027678,0.0,0 STARLINK-4040,1 53151U 22083V   23054.35214422  .00027678  00000-0  17503-2 0  9995,2 53151  53.2156 108.6157 0001207 107.7792 252.3332 15.08840314 34360,6917.879,95.438,540.579,538.909,0.0
53151.0,STARLINK-4040,PAYLOAD,2023-02-23 10:02:28,15.0884216,0.0001186,53.2159,108.3181,97.9767,262.1359,0.0016096,0.00025423,0.0,0 STARLINK-4040,1 53151U 22083V   23054.41838453  .00025423  00000-0  16096-2 0  9990,2 53151  53.2159 108.3181 0001186  97.9767 262.1359 15.08842160 33745,6917.874,95.437,540.559,538.918,0.0
53151.0,STARLINK-4040,PAYLOAD,2023-02-23 14:48:37,15.0884958,0.0001272,53.216,107.4257,95.4222,264.6915,0.0019546,0.00030965,0.0,0 STARLINK-4040,1 53151U 22083V   23054.61710492  .00030965  00000-0  19546-2 0  9994,2 53151  53.2160 107.4257 0001272  95.4222 264.6915 15.08849580 33777,6917.851,95.437,540.596,538.836,0.0
53151.0,STARLINK-4040,PAYLOAD,2023-02-24 03:31:43,15.088532,0.0001477,53.2161,105.0471,94.0593,266.0568,0.001716,0.00027138,0.0,0 STARLINK-4040,1 53151U 22083V   23055.14702797  .00027138  00000-0  17160-2 0  9990,2 53151  53.2161 105.0471 0001477  94.0593 266.0568 15.08853200 34486,6917.84,95.437,540.727,538.683,0.0
53151.0,STARLINK-4040,PAYLOAD,2023-02-24 09:53:15,15.0885961,0.0001334,53.2172,103.8571,90.6932,269.4213,0.0016729,0.00026451,0.0,0 STARLINK-4040,1 53151U 22083V   23055.41198511  .00026451  00000-0  16729-2 0  9990,2 53151  53.2172 103.8571 0001334  90.6932 269.4213 15.08859610 33895,6917.82,95.436,540.608,538.763,0.0
53151.0,STARLINK-4040,PAYLOAD,2023-02-24 14:39:24,15.08860623,0.0001435,53.2167,102.9644,86.4168,273.6988,0.001095,0.00017192,0.0,0 STARLINK-4040,1 53151U 22083V   23055.61070313  .00017192  00000-0  10950-2 0  9993,2 53151  53.2167 102.9644 0001435  86.4168 273.6988 15.08860623 34552,6917.817,95.436,540.675,538.69,0.0
53151.0,STARLINK-4040,PAYLOAD,2023-02-25 09:44:03,15.08836362,0.0001425,53.2175,99.3941,105.5792,254.5357,0.00057293,8.841e-05,0.0,0 STARLINK-4040,1 53151U 22083V   23056.40559120  .00008841  00000-0  57293-3 0  9992,2 53151  53.2175  99.3941 0001425 105.5792 254.5357 15.08836362 34679,6917.892,95.438,540.742,538.771,0.0
53151.0,STARLINK-4040,PAYLOAD,2023-02-25 12:54:49,15.08837465,0.0001372,53.2172,98.8009,97.2731,262.8417,0.00064694,0.00010022,0.0,0 STARLINK-4040,1 53151U 22083V   23056.53807267  .00010022  00000-0  64694-3 0  9991,2 53151  53.2172  98.8009 0001372  97.2731 262.8417 15.08837465 34063,6917.888,95.438,540.702,538.804,0.0
53151.0,STARLINK-4040,PAYLOAD,2023-02-25 19:16:22,15.08842461,0.0001439,53.2174,97.6116,84.664,275.4516,0.00089204,0.00013938,0.0,0 STARLINK-4040,1 53151U 22083V   23056.80303430  .00013938  00000-0  89204-3 0  9997,2 53151  53.2174  97.6116 0001439  84.6640 275.4516 15.08842461 34101,6917.873,95.437,540.733,538.742,0.0
53151.0,STARLINK-4040,PAYLOAD,2023-02-26 12:45:35,15.08870735,0.000139,53.2184,94.341,87.0349,273.0802,0.0012577,0.00019802,0.0,0 STARLINK-4040,1 53151U 22083V   23057.53166628  .00019802  00000-0  12577-2 0  9998,2 53151  53.2184  94.3410 0001390  87.0349 273.0802 15.08870735 34211,6917.786,95.436,540.613,538.69,0.0
53151.0,STARLINK-4040,PAYLOAD,2023-02-26 19:07:08,15.0885133,0.0001922,53.2172,93.1518,78.3907,281.7301,0.00054505,8.4e-05,0.0,0 STARLINK-4040,1 53151U 22083V   23057.79663053  .00008400  00000-0  54505-3 0  9990,2 53151  53.2172  93.1518 0001922  78.3907 281.7301 15.08851330 34881,6917.846,95.437,541.04,538.381,0.0
53151.0,STARLINK-4040,PAYLOAD,2023-02-27 11:01:00,15.08853172,0.000148,53.2182,90.1783,80.1851,279.9308,0.00085244,0.00013309,0.0,0 STARLINK-4040,1 53151U 22083V   23058.45903035  .00013309  00000-0  85244-3 0  9999,2 53151  53.2182  90.1783 0001480  80.1851 279.9308 15.08853172 34984,6917.84,95.437,540.729,538.681,0.0
53151.0,STARLINK-4040,PAYLOAD,2023-02-27 18:57:56,15.08870247,0.0001425,53.2171,88.6918,88.0811,272.0344,0.0025791,0.00041032,0.0,0 STARLINK-4040,1 53151U 22083V   23058.79023165  .00041032  00000-0  25791-2 0  9997,2 53151  53.2171  88.6918 0001425  88.0811 272.0344 15.08870247 34409,6917.788,95.436,540.639,538.667,0.0
53151.0,STARLINK-4040,PAYLOAD,2023-02-28 01:19:28,15.08852401,0.000103,53.2169,87.5033,97.4471,262.6638,0.001058,0.00016596,0.0,0 STARLINK-4040,1 53151U 22083V   23059.05519040  .00016596  00000-0  10580-2 0  9996,2 53151  53.2169  87.5033 0001030  97.4471 262.6638 15.08852401 35077,6917.842,95.437,540.42,538.995,0.0
53151.0,STARLINK-4040,PAYLOAD,2023-02-28 09:16:23,15.08871845,0.0001259,53.2165,86.0158,90.998,269.1156,0.0021474,0.00034083,0.0,0 STARLINK-4040,1 53151U 22083V   23059.38638721  .00034083  00000-0  21474-2 0  9995,2 53151  53.2165  86.0158 0001259  90.9980 269.1156 15.08871845 34496,6917.783,95.436,540.519,538.777,0.0
53151.0,STARLINK-4040,PAYLOAD,2023-02-28 18:48:42,15.08818336,0.0001383,53.2169,84.2317,110.7503,249.3637,-0.0016519,-0.00026466,0.0,0 STARLINK-4040,1 53151U 22083V   23059.78382951 -.00026466  00000-0 -16519-2 0  9992,2 53151  53.2169  84.2317 0001383 110.7503 249.3637 15.08818336 34554,6917.947,95.439,540.768,538.855,0.0
53151.0,STARLINK-4040,PAYLOAD,2023-03-01 09:07:12,15.08813992,0.0001285,53.2169,81.5555,114.0783,246.0343,0.0017485,0.00027629,0.0,0 STARLINK-4040,1 53151U 22083V   23060.38000551  .00027629  00000-0  17485-2 0  9996,2 53151  53.2169  81.5555 0001285 114.0783 246.0343 15.08813992 35277,6917.96,95.439,540.714,538.936,0.0
53151.0,STARLINK-4040,PAYLOAD,2023-03-01 18:39:31,15.08831085,0.0001346,53.2169,79.7714,112.7435,247.3699,0.0016586,0.00026201,0.0,0 STARLINK-4040,1 53151U 22083V   23060.77745080  .00026201  00000-0  16586-2 0  9998,2 53151  53.2169  79.7714 0001346 112.7435 247.3699 15.08831085 34708,6917.908,95.438,540.704,538.841,0.0
53151.0,STARLINK-4040,PAYLOAD,2023-03-02 18:30:18,15.08858286,0.0001489,53.2178,75.3112,101.3802,258.7358,0.0010916,0.00017136,0.0,0 STARLINK-4040,1 53151U 22083V   23061.77104667  .00017136  00000-0  10916-2 0  9997,2 53151  53.2178  75.3112 0001489 101.3802 258.7358 15.08858286 35488,6917.824,95.436,540.72,538.659,0.0
53151.0,STARLINK-4040,PAYLOAD,2023-03-03 11:59:31,15.08885951,0.0001424,53.2172,72.0403,103.2576,256.8575,0.0019669,0.00031194,0.0,0 STARLINK-4040,1 53151U 22083V   23062.49967372  .00031194  00000-0  19669-2 0  9991,2 53151  53.2172  72.0403 0001424 103.2576 256.8575 15.08885951 34968,6917.74,95.435,540.59,538.62,0.0
53151.0,STARLINK-4040,PAYLOAD,2023-03-04 00:42:36,15.08865405,0.0001531,53.2173,69.6606,110.7215,249.3941,0.0014338,0.0002262,0.0,0 STARLINK-4040,1 53151U 22083V   23063.02959380  .00022620  00000-0  14338-2 0  9993,2 53151  53.2173  69.6606 0001531 110.7215 249.3941 15.08865405 35673,6917.803,95.436,540.727,538.609,0.0
53151.0,STARLINK-4040,PAYLOAD,2023-03-04 11:50:18,15.08879568,0.0001224,53.2174,67.5788,114.9511,245.1608,0.0020701,0.00032847,0.0,0 STARLINK-4040,1 53151U 22083V   23063.49326566  .00032847  00000-0  20701-2 0  9991,2 53151  53.2174  67.5788 0001224 114.9511 245.1608 15.08879568 35114,6917.759,95.435,540.471,538.778,0.0
53151.0,STARLINK-4040,PAYLOAD,2023-03-05 11:41:06,15.08851596,0.0001081,53.2175,63.12,80.8292,279.2822,0.0020113,0.00031877,0.0,0 STARLINK-4040,1 53151U 22083V   23064.48687698  .00031877  00000-0  20113-2 0  9996,2 53151  53.2175  63.1200 0001081  80.8292 279.2822 15.08851596 35896,6917.845,95.437,540.458,538.962,0.0
53151.0,STARLINK-4040,PAYLOAD,2023-03-05 13:16:29,15.08833447,7.82e-05,53.2173,62.8201,145.1578,214.9465,0.0010698,0.00016776,0.0,0 STARLINK-4040,1 53151U 22083V   23064.55311495  .00016776  00000-0  10698-2 0  9991,2 53151  53.2173  62.8201 0000782 145.1578 214.9465 15.08833447 35276,6917.9,95.438,540.306,539.224,0.0
53151.0,STARLINK-4040,PAYLOAD,2023-03-05 16:27:15,15.08836931,5.86e-05,53.2175,62.228,122.5234,237.5814,0.0010855,0.00017029,0.0,0 STARLINK-4040,1 53151U 22083V   23064.68559701  .00017029  00000-0  10855-2 0  9996,2 53151  53.2175  62.2280 0000586 122.5234 237.5814 15.08836931 35921,6917.89,95.438,540.16,539.349,0.0
53151.0,STARLINK-4040,PAYLOAD,2023-03-06 09:56:29,15.08885586,9.84e-05,53.217,58.9548,84.6001,275.5103,0.0024383,0.0003878,0.0,0 STARLINK-4040,1 53151U 22083V   23065.41422953  .00038780  00000-0  24383-2 0  9994,2 53151  53.2170  58.9548 0000984  84.6001 275.5103 15.08885586 36033,6917.741,95.435,540.287,538.925,0.0
53151.0,STARLINK-4040,PAYLOAD,2023-03-06 16:18:02,15.08842033,0.0001357,53.2177,57.7669,92.7741,267.3407,-0.00029579,-4.993e-05,0.0,0 STARLINK-4040,1 53151U 22083V   23065.67919382 -.00004993  00000-0 -29579-3 0  9993,2 53151  53.2177  57.7669 0001357  92.7741 267.3407 15.08842033 36077,6917.874,95.437,540.678,538.8,0.0
53151.0,STARLINK-4040,PAYLOAD,2023-03-07 08:11:54,15.08851833,0.0001458,53.2168,54.7928,88.2087,271.9072,0.0025532,0.00040594,0.0,0 STARLINK-4040,1 53151U 22083V   23066.34160103  .00040594  00000-0  25532-2 0  9996,2 53151  53.2168  54.7928 0001458  88.2087 271.9072 15.08851833 36175,6917.844,95.437,540.718,538.701,0.0
53151.0,STARLINK-4040,PAYLOAD,2023-03-07 16:08:50,15.08839243,0.0001411,53.2167,53.306,98.701,261.4142,0.0011158,0.00017514,0.0,0 STARLINK-4040,1 53151U 22083V   23066.67280323  .00017514  00000-0  11158-2 0  9994,2 53151  53.2167  53.3060 0001411  98.7010 261.4142 15.08839243 36226,6917.883,95.438,540.724,538.772,0.0
53151.0,STARLINK-4040,PAYLOAD,2023-03-08 08:02:41,15.08874021,0.0001515,53.2169,50.3324,105.0655,255.0505,0.0026278,0.00041821,0.0,0 STARLINK-4040,1 53151U 22083V   23067.33519897  .00041821  00000-0  26278-2 0  9996,2 53151  53.2169  50.3324 0001515 105.0655 255.0505 15.08874021 36326,6917.776,95.435,540.689,538.593,0.0
